STARLINK-5891           
1 56351U 23058AL  24090.57729366 -.00000144  00000+0 -66522-5 0  9994
2 56351  97.6549  92.5749 0001995 173.5451 186.5799 15.01258599 51745
STARLINK-5885           
1 56352U 23058AM  24090.58284707  .00000234  00000+0  22840-4 0  9993
2 56352  97.6543  92.5733 0000854 168.4194 191.7050 15.01258877 51740
STARLINK-5874           
1 56353U 23058AN  24090.56433342  .00000246  00000+0  23710-4 0  9993
2 56353  97.6576  92.5957 0001724  87.4054 272.7367 15.01260730 51749
STARLINK-5877           
1 56354U 23058AP  24090.58494819 -.00000472  00000+0 -32127-4 0  9997
2 56354  97.6541  92.5726 0001366 136.0339 224.0994 15.01257155 51748
STARLINK-5533           
1 56355U 23058AQ  24090.57174194 -.00000081  00000+0 -17099-5 0  9996
2 56355  97.6557  92.5816 0002546 156.0932 204.0411 15.01256985 51740
STARLINK-5535           
1 56356U 23058AR  24090.57359194 -.00000102  00000+0 -33476-5 0  9993
2 56356  97.6553  92.5792 0002385 164.3740 195.7558 15.01256566 51743
STARLINK-5538           
1 56357U 23058AS  24090.57198290  .00000177  00000+0  18394-4 0  9993
2 56357  97.6555  92.5814 0001714 163.8345 196.2934 15.01262856 51744
STARLINK-5482           
1 56358U 23058AT  24090.57544498 -.00001141  00000+0 -84251-4 0  9998
2 56358  97.6552  92.5767 0002940 166.6932 193.4370 15.01267911 51744
STARLINK-5551           
1 56359U 23058AU  24090.57013118  .00000238  00000+0  23105-4 0  9994
2 56359  97.6557  92.5857 0001509  91.0983 269.0414 15.01261720 51748
STARLINK-5549           
1 56360U 23058AV  24090.56989201 -.00000102  00000+0 -33690-5 0  9993
2 56360  97.6559  92.5840 0002919 143.1776 216.9649 15.01258010 51748
STARLINK-5550           
1 56361U 23058AW  24090.56803354 -.00001652  00000+0 -12406-3 0  9999
2 56361  97.6557  92.5901 0001372  99.5815 260.5565 15.01267958 51748
STARLINK-5972           
1 56362U 23058AX  24090.56618768 -.00000492  00000+0 -33736-4 0  9994
2 56362  97.6567  92.5913 0001994 121.1429 238.9991 15.01262947 51741
STARLINK-6156           
1 56374U 23061A   24090.31414618  .00011952  00000+0  89861-3 0  9992
2 56374  43.0020  92.2317 0000860 284.3629  75.7117 15.02524949 51148
STARLINK-6158           
1 56375U 23061B   24090.30859060  .00004123  00000+0  31999-3 0  9997
2 56375  43.0022  92.1905 0001253 266.4683  93.6016 15.02547392 50043
STARLINK-6188           
1 56376U 23061C   24090.44487506  .00007302  00000+0  55476-3 0  9993
2 56376  43.0025  91.4930 0001276 277.5306  82.5391 15.02555251 50065
STARLINK-6189           
1 56377U 23061D   24090.37174210  .00000584  00000+0  58294-4 0  9998
2 56377  43.0014  91.8030 0001217 265.3455  94.7249 15.02542850 50051
STARLINK-6191           
1 56378U 23061E   24090.36174783  .00001942  00000+0  15875-3 0  9999
2 56378  43.0009  91.7239 0001122 265.1062  94.9652 15.02549417 50059
STARLINK-6157           
1 56379U 23061F   24090.36064738  .00001016  00000+0  90272-4 0  9995
2 56379  43.0026  91.7213 0001320 263.9075  96.1617 15.02535010 51152
STARLINK-6161           
1 56380U 23061G   24090.36395555  .00002296  00000+0  18485-3 0  9997
2 56380  43.0025  91.7419 0001341 271.5745  88.4944 15.02561302 50051
STARLINK-6159           
1 56381U 23061H   24090.30082660  .00005041  00000+0  38795-3 0  9999
2 56381  43.0012  92.1304 0001154 270.2195  89.8515 15.02540310 50047
STARLINK-6160           
1 56382U 23061J   24090.02270019  .00001298  00000+0  11112-3 0  9990
2 56382  42.9984  93.4776 0000933 200.9015 159.1789 15.02542610 50001
STARLINK-6166           
1 56383U 23061K   24090.29085422  .00005197  00000+0  39953-3 0  9997
2 56383  43.0015  92.0530 0001559 260.6526  99.4140 15.02531758 50049
STARLINK-6153           
1 56384U 23061L   24090.28084471  .00000654  00000+0  63461-4 0  9995
2 56384  43.0000  91.9762 0001053 251.1724 108.9004 15.02532221 50044
STARLINK-6173           
1 56385U 23061M   24090.28528458  .00001399  00000+0  11857-3 0  9992
2 56385  43.0009  92.0126 0001120 268.1807  91.8907 15.02540653 50045
STARLINK-5836           
1 56386U 23061N   24090.40714380  .00000969  00000+0  86821-4 0  9994
2 56386  43.0024  91.2041 0001221 258.3250 101.7455 15.02535551 50067
STARLINK-6178           
1 56387U 23061P   24090.28195649  .00002118  00000+0  17183-3 0  9994
2 56387  43.0012  91.9861 0001216 256.6151 103.4555 15.02538056 50048
STARLINK-6176           
1 56388U 23061Q   24090.26530525  .00000745  00000+0  70190-4 0  9991
2 56388  43.0022  91.8568 0001252 253.2874 106.7831 15.02542094 50048
STARLINK-6145           
1 56389U 23061R   24090.27753463 -.00033121  00000+0 -24523-2 0  9994
2 56389  43.0017  91.9521 0000840 276.6316  83.4430 15.02475957 50044
STARLINK-6300           
1 56390U 23061S   24090.27123329 -.00000727  00000+0 -38730-4 0  9991
2 56390  43.0034  79.7738 0001255 260.7109  99.3591 15.02532601 50183
STARLINK-6298           
1 56391U 23061T   24090.27085221 -.00000559  00000+0 -26307-4 0  9990
2 56391  43.0008  91.9015 0001078 253.5107 106.5617 15.02548873 50043
STARLINK-6301           
1 56392U 23061U   24090.40640618  .00011286  00000+0  84873-3 0  9991
2 56392  43.0026  79.0676 0001167 274.3505  85.7204 15.02556158 50209
STARLINK-6303           
1 56393U 23061V   24090.00161025  .00007973  00000+0  60439-3 0  9998
2 56393  43.0005  93.3178 0001350 243.4803 116.5901 15.02550515 50001
STARLINK-6305           
1 56394U 23061W   24090.32883200  .00000705  00000+0  67218-4 0  9999
2 56394  43.0034  79.3430 0000956 265.1137  94.9596 15.02536444 50195
STARLINK-6273           
1 56395U 23061X   24090.39863996 -.00000073  00000+0  96797-5 0  9991
2 56395  43.0033  79.0082 0001255 271.6470  88.4228 15.02537636 50914
STARLINK-6302           
1 56396U 23061Y   24090.45623147  .00009298  00000+0  70200-3 0  9997
2 56396  43.0015  78.5800 0001366 256.6957 103.3733 15.02559353 45342
STARLINK-6271           
1 56397U 23061Z   24090.26790646  .00001986  00000+0  16200-3 0  9992
2 56397  43.0013  79.7486 0000439 264.7978  95.2815 15.02540130 50188
STARLINK-6288           
1 56398U 23061AA  24090.31994734  .00004196  00000+0  32540-3 0  9994
2 56398  43.0017  79.2770 0001277 271.8444  88.2252 15.02550096 50192
STARLINK-6277           
1 56399U 23061AB  24090.32549898  .00005966  00000+0  45617-3 0  9998
2 56399  43.0012  79.3178 0001135 266.4223  93.6489 15.02549118 50194
STARLINK-6267           
1 56400U 23061AC  24090.24792598  .00009996  00000+0  75382-3 0  9998
2 56400  43.0016  79.5952 0000894 251.3165 108.7580 15.02543206 50475
STARLINK-6256           
1 56401U 23061AD  24090.32242717  .00000023  00000+0  16799-4 0  9991
2 56401  43.0032  66.2877 0001276 274.4438  85.6259 15.02544179 50349
STARLINK-6284           
1 56403U 23061AF  24090.25014541  .00011473  00000+0  86294-3 0  9994
2 56403  43.0019  79.6123 0000730 299.3891  60.6879 15.02536752 50182
STARLINK-6287           
1 56404U 23061AG  24090.37200017  .00001498  00000+0  12593-3 0  9990
2 56404  43.0020  78.8048 0001373 262.7694  97.2993 15.02539968 50209
STARLINK-6285           
1 56405U 23061AH  24090.37755194  .00002290  00000+0  18454-3 0  9995
2 56405  43.0011  78.8476 0001359 262.9871  97.0817 15.02530224 50207
STARLINK-6283           
1 56406U 23061AJ  24090.36311946  .00001764  00000+0  14559-3 0  9995
2 56406  43.0010  78.7374 0001071 257.6462 102.4261 15.02551966 50201
STARLINK-6282           
1 56407U 23061AK  24090.37421458  .00002388  00000+0  19172-3 0  9996
2 56407  43.0010  78.8207 0001040 266.1480  93.9244 15.02549997 50205
STARLINK-6289           
1 56408U 23061AL  24090.36089639  .00005555  00000+0  42585-3 0  9990
2 56408  43.0029  78.7080 0001186 270.6247  89.4459 15.02548200 50200
STARLINK-6241           
1 56409U 23061AM  24090.36870084  .00009559  00000+0  72204-3 0  9992
2 56409  43.0014  78.7772 0001569 250.4854 109.5818 15.02519147 50209
STARLINK-6281           
1 56410U 23061AN  24090.02185119 -.00001483  00000+0 -94699-4 0  9998
2 56410  43.0007  80.4750 0001263 269.0214  91.0484 15.02535375 50155
STARLINK-6279           
1 56411U 23061AP  24090.43292813  .00005603  00000+0  42943-3 0  9994
2 56411  43.0016  78.4005 0001124 270.0311  90.0403 15.02541925 50217
STARLINK-6278           
1 56412U 23061AQ  24090.14925843  .00000041  00000+0  18112-4 0  9992
2 56412  43.0045  79.7103 0001265 271.1763  88.8934 15.02542385 50172
STARLINK-6258           
1 56413U 23061AR  24090.35754736 -.00004064  00000+0 -28589-3 0  9996
2 56413  43.0028  78.6947 0001476 259.2037 100.8639 15.02544772 50206
STARLINK-5136           
1 56414U 23061AS  24090.34424706  .00004480  00000+0  34642-3 0  9994
2 56414  43.0014  78.5945 0000903 270.0436  90.0303 15.02544440 50207
STARLINK-6268           
1 56415U 23061AT  24090.15258089  .00025563  00000+0  18986-2 0  9990
2 56415  43.0022  79.7365 0000967 267.2089  92.8642 15.02574345 50177
STARLINK-6260           
1 56416U 23061AU  24090.19612805  .00002211  00000+0  17865-3 0  9996
2 56416  43.0040  67.0608 0001070 267.3612  92.7108 15.02548507 50321
STARLINK-6261           
1 56417U 23061AV  24090.34536704 -.00000843  00000+0 -47325-4 0  9993
2 56417  43.0013  78.6035 0001003 255.1152 104.9579 15.02530601 50205
STARLINK-5356           
1 56418U 23061AW  24090.38113421  .00020857  00000+0  15536-2 0  9997
2 56418  43.0033  65.8676 0001578 253.5490 106.5179 15.02555905 50355
STARLINK-5350           
1 56419U 23061AX  24090.34203350 -.00000524  00000+0 -23728-4 0  9990
2 56419  43.0025  78.5771 0001498 261.1784  98.8888 15.02535265 50207
STARLINK-6272           
1 56420U 23061AY  24090.31133112  .00001330  00000+0  11352-3 0  9990
2 56420  43.0028  66.2021 0001409 262.3354  97.7328 15.02534442 50340
STARLINK-6270           
1 56421U 23061AZ  24090.33130418  .00004631  00000+0  35757-3 0  9991
2 56421  43.0018  66.3493 0000975 280.5498  79.5235 15.02547670 50344
